CAS-2T & KS-1Q          
1 41847U 16066G   20310.16996892  .00000134  00000-0  30231-4 0  9990
2 41847  98.6364   1.9810 0365877 169.3657 191.5544 14.38106728209644
NAYIF-1 (EO-88)         
1 42017U 17008BX  20309.87796802  .00002173  00000-0  84874-4 0  9999
2 42017  97.3453  15.3110 0006297 170.3595 189.7766 15.26935153206970
ZHUHAI-1 02 (CAS-4B)    
1 42759U 17034B   20310.38100304  .00000592  00000-0  49268-4 0  9996
2 42759  43.0194 332.7058 0010172 206.6868 168.0274 15.09935063187279
ZHUHAI-1 01 (CAS-4A)    
1 42761U 17034D   20310.33702282  .00000607  00000-0  50043-4 0  9997
2 42761  43.0199 332.1516 0010656 207.4277 271.1865 15.10014597187263
MAX VALIER SAT          
1 42778U 17036P   20310.42913606  .00001298  00000-0  58276-4 0  9994
2 42778  97.2882   0.0523 0010640 242.1678 117.8481 15.22886532187184
RADFXSAT (FOX-1B)       
1 43017U 17073E   20310.31286053  .00001130  00000-0  93431-4 0  9996
2 43017  97.7152 217.0615 0255411 311.5855  46.3713 14.79119242159982
FOX-1D (AO-92)          
1 43137U 18004AC  20309.70852874  .00001563  00000-0  66655-4 0  9993
2 43137  97.4329  19.8390 0007496 285.4820  74.5590 15.24417773156406
DIWATA-2B               
1 43678U 18084H   20310.34489933 -.00000225  00000-0 -16590-4 0  9994
2 43678  97.9004  68.8748 0011309  73.6524 286.5954 14.91662853110029
ES'HAIL 2               
1 43700U 18090A   20309.89525795  .00000156  00000-0  00000-0 0  9998
2 43700   0.0125 273.3726 0002115 335.6783 143.6727  1.00273305  7118
FOX-1CLIFF (AO-95)      
1 43770U 18099N   20309.72649754  .00000370  00000-0  38939-4 0  9992
2 43770  97.6927  18.5682 0015992  89.5983 270.7070 14.95081178104878
ITASAT 1                
1 43786U 18099AE  20310.16057083  .00000485  00000-0  48955-4 0  9993
2 43786  97.6946  19.5139 0016744  81.9481 278.3639 14.95411459104963
JY1SAT (JO-97)          
1 43803U 18099AX  20310.15772543  .00000687  00000-0  66920-4 0  9993
2 43803  97.6908  19.2987 0016715  82.2607 278.0511 14.95607182104967
PSAT2 (NO-104)          
1 44354U 19036R   20310.00161533  .00015171  00000-0  21679-3 0  9997
2 44354  28.5280 175.8490 0353551  14.9056 346.1660 15.06208933 75003
BRICSAT2 (NO-103)       
1 44355U 19036S   20309.92947597  .00030742  00000-0  40715-3 0  9992
2 44355  28.5265 158.5838 0322330  42.9365 319.5925 15.14240835 75189
JAISAT-1                
1 44419U 19038F   20309.90569634  .00001556  00000-0  91380-4 0  9991
2 44419  97.5573 270.0066 0021815  11.1593 349.0117 15.13037118 73834
DUCHIFAT-3              
1 44854U 19089C   20310.36622496  .00000642  00000-0  58170-4 0  9993
2 44854  36.9675 345.5257 0007135 121.6436 238.4994 14.99182520 49455
RS-44 & BREEZE-KM R/B   
1 44909U 19096E   20309.93024583  .00000025  00000-0  61193-4 0  9990
2 44909  82.5202 261.9595 0216244 258.0583  99.6203 12.79708475 40153
ORBITAL FACTORY 2 (OF-2)
1 45113U 19071C   20310.43309394  .00002022  00000-0  71918-4 0  9999
2 45113  51.6438  42.2573 0012530 203.4159 156.6254 15.33967059 42767
HUSKYSAT-1              
1 45119U 19071J   20309.54647442  .00003703  00000-0  12153-3 0  9996
2 45119  51.6435  46.0875 0011946 196.6678 163.3913 15.34132933 42624
SALSAT                  
1 46495U 20068K   20309.88970890  .00000796  00000-0  63139-4 0  9995
2 46495  97.6709 243.0301 0018339 110.5229 249.7937 15.03248574  5594
